[{"OBJECT_NAME":"STARLINK-5689","OBJECT_ID":"2023-015AB","EPOCH":"2026-03-09T22:00:01.999584","MEAN_MOTION":15.12014611,"ECCENTRICITY":6.179e-5,"INCLINATION":42.9998,"RA_OF_ASC_NODE":337.6137,"ARG_OF_PERICENTER":254.0125,"MEAN_ANOMALY":325.8461,"EPHEMERIS_TYPE":0,"CLASSIFICATION_TYPE":"U","NORAD_CAT_ID":55474,"ELEMENT_SET_NO":999,"REV_AT_EPOCH":573,"BSTAR":0.0012439246,"MEAN_MOTION_DOT":0.00021586,"MEAN_MOTION_DDOT":0},{"OBJECT_NAME":"AAC-HSI-SAT3","OBJECT_ID":"2023-174DH","EPOCH":"2026-03-09T23:15:51.401952","MEAN_MOTION":15.15239914,"ECCENTRICITY":0.00104695,"INCLINATION":97.3525,"RA_OF_ASC_NODE":131.622,"ARG_OF_PERICENTER":2.3661,"MEAN_ANOMALY":357.7619,"EPHEMERIS_TYPE":0,"CLASSIFICATION_TYPE":"U","NORAD_CAT_ID":58848,"ELEMENT_SET_NO":999,"REV_AT_EPOCH":12887,"BSTAR":0.00020496498,"MEAN_MOTION_DOT":3.793e-5,"MEAN_MOTION_DDOT":0}]
